GOES 19                 
1 60133U 24119A   26117.19141821 -.00000259  00000+0  00000+0 0  9999
2 60133   0.0270  67.8750 0000550  17.0151 124.0038  1.00272942  6452
FENGYUN 3H              
1 65815U 25219A   26117.09390105  .00000057  00000+0  47172-4 0  9994
2 65815  98.6742  58.8648 0000853 106.3308 253.7962 14.19944079 30138
